[{"OBJECT_NAME":"STARLINK-30818","OBJECT_ID":"2023-170M","EPOCH":"2026-03-09T22:00:01.999584","MEAN_MOTION":15.26728011,"ECCENTRICITY":0.00017343,"INCLINATION":43.0009,"RA_OF_ASC_NODE":192.5311,"ARG_OF_PERICENTER":269.5729,"MEAN_ANOMALY":283.793,"EPHEMERIS_TYPE":0,"CLASSIFICATION_TYPE":"U","NORAD_CAT_ID":58217,"ELEMENT_SET_NO":999,"REV_AT_EPOCH":578,"BSTAR":0.00072234449,"MEAN_MOTION_DOT":0.00019159,"MEAN_MOTION_DDOT":0},{"OBJECT_NAME":"SL-3 R\/B","OBJECT_ID":"1982-079B","EPOCH":"2026-03-09T22:18:18.158976","MEAN_MOTION":15.24805533,"ECCENTRICITY":0.00250364,"INCLINATION":81.1481,"RA_OF_ASC_NODE":192.7939,"ARG_OF_PERICENTER":164.0597,"MEAN_ANOMALY":196.143,"EPHEMERIS_TYPE":0,"CLASSIFICATION_TYPE":"U","NORAD_CAT_ID":13403,"ELEMENT_SET_NO":999,"REV_AT_EPOCH":37773,"BSTAR":0.00032485557,"MEAN_MOTION_DOT":8.157e-5,"MEAN_MOTION_DDOT":0}]
